GLOBALSTAR M076 [+]     
1 37190U 10054C   17345.95768752 -.00000089  00000-0  84378-4 0  9991
2 37190  52.0012 213.3576 0001365  57.1968  44.8796 12.62264926330341
